[{"OBJECT_NAME":"STARLINK-3799","OBJECT_ID":"2022-045BD","EPOCH":"2026-03-09T12:44:10.755456","MEAN_MOTION":15.09112247,"ECCENTRICITY":0.00013442,"INCLINATION":53.2162,"RA_OF_ASC_NODE":189.8374,"ARG_OF_PERICENTER":65.0559,"MEAN_ANOMALY":295.0573,"EPHEMERIS_TYPE":0,"CLASSIFICATION_TYPE":"U","NORAD_CAT_ID":52382,"ELEMENT_SET_NO":999,"REV_AT_EPOCH":21590,"BSTAR":0.00071977404,"MEAN_MOTION_DOT":0.00011271,"MEAN_MOTION_DDOT":0},{"OBJECT_NAME":"ASTRO-H (HITOMI)","OBJECT_ID":"2016-012A","EPOCH":"2026-03-09T04:06:47.322720","MEAN_MOTION":15.10001629,"ECCENTRICITY":0.0009877,"INCLINATION":31.0008,"RA_OF_ASC_NODE":359.8923,"ARG_OF_PERICENTER":325.8962,"MEAN_ANOMALY":34.1041,"EPHEMERIS_TYPE":0,"CLASSIFICATION_TYPE":"U","NORAD_CAT_ID":41337,"ELEMENT_SET_NO":999,"REV_AT_EPOCH":55215,"BSTAR":0.00025536822,"MEAN_MOTION_DOT":4.351e-5,"MEAN_MOTION_DDOT":0}]
